NORAD_CAT_ID,OBJECT_NAME,OBJECT_TYPE,EPOCH,MEAN_MOTION,ECCENTRICITY,INCLINATION,RA_OF_ASC_NODE,ARG_OF_PERICENTER,MEAN_ANOMALY,BSTAR,MEAN_MOTION_DOT,MEAN_MOTION_DDOT,TLE_LINE0,TLE_LINE1,TLE_LINE2,SEMIMAJOR_AXIS,PERIOD,APOGEE,PERIGEE,DECAYED
53719.0,STARLINK-4644,PAYLOAD,2023-09-25 02:12:50,15.08840392,0.0001613,53.2155,288.7274,90.6161,269.5016,0.00013202,1.814e-05,0.0,0 STARLINK-4644,1 53719U 22107V   23268.09225028  .00001814  00000-0  13202-3 0  9991,2 53719  53.2155 288.7274 0001613  90.6161 269.5016 15.08840392 59014,6917.879,95.438,540.86,538.628,0.0
53719.0,STARLINK-4644,PAYLOAD,2023-09-25 11:45:08,15.08849849,0.0001666,53.2164,286.9435,96.3307,263.7875,0.00021528,3.141e-05,0.0,0 STARLINK-4644,1 53719U 22107V   23268.48968512  .00003141  00000-0  21528-3 0  9991,2 53719  53.2164 286.9435 0001666  96.3307 263.7875 15.08849849 59549,6917.85,95.437,540.868,538.563,0.0
53719.0,STARLINK-4644,PAYLOAD,2023-09-25 18:06:41,15.08841962,0.0001584,53.2161,285.7525,94.2505,265.8668,0.00010138,1.326e-05,0.0,0 STARLINK-4644,1 53719U 22107V   23268.75464770  .00001326  00000-0  10138-3 0  9996,2 53719  53.2161 285.7525 0001584  94.2505 265.8668 15.08841962 59584,6917.874,95.437,540.835,538.644,0.0
53719.0,STARLINK-4644,PAYLOAD,2023-09-26 08:25:09,15.08843869,0.000164,53.2156,283.0785,91.2318,268.8862,0.00011887,1.604e-05,0.0,0 STARLINK-4644,1 53719U 22107V   23269.35080699  .00001604  00000-0  11887-3 0  9998,2 53719  53.2156 283.0785 0001640  91.2318 268.8862 15.08843869 59205,6917.869,95.437,540.868,538.599,0.0
53719.0,STARLINK-4644,PAYLOAD,2023-09-26 22:43:38,15.08837702,0.0001475,53.215,280.4014,103.3197,256.7959,-1.2781e-05,-4.91e-06,0.0,0 STARLINK-4644,1 53719U 22107V   23269.94697018 -.00000491  00000-0 -12781-4 0  9992,2 53719  53.2150 280.4014 0001475 103.3197 256.7959 15.08837702 59292,6917.887,95.438,540.773,538.732,0.0
53719.0,STARLINK-4644,PAYLOAD,2023-09-27 09:51:20,15.0883652,0.0001494,53.2145,278.3174,97.9537,262.1624,-5.0706e-06,-3.69e-06,0.0,0 STARLINK-4644,1 53719U 22107V   23270.41065208 -.00000369  00000-0 -50706-5 0  9990,2 53719  53.2145 278.3174 0001494  97.9537 262.1624 15.08836520 59833,6917.891,95.438,540.79,538.722,0.0
53719.0,STARLINK-4644,PAYLOAD,2023-09-28 00:09:49,15.08832315,0.0001652,53.2166,275.6418,90.6534,269.4648,2.9497e-06,-2.41e-06,0.0,0 STARLINK-4644,1 53719U 22107V   23271.00682125 -.00000241  00000-0  29497-5 0  9990,2 53719  53.2166 275.6418 0001652  90.6534 269.4648 15.08832315 59452,6917.904,95.438,540.912,538.626,0.0
53719.0,STARLINK-4644,PAYLOAD,2023-09-28 08:06:44,15.08836405,0.0001495,53.2166,274.1554,80.7262,279.3899,3.8542e-05,3.25e-06,0.0,0 STARLINK-4644,1 53719U 22107V   23271.33801922  .00000325  00000-0  38542-4 0  9996,2 53719  53.2166 274.1554 0001495  80.7262 279.3899 15.08836405 59979,6917.891,95.438,540.791,538.722,0.0
53719.0,STARLINK-4644,PAYLOAD,2023-09-29 00:00:36,15.08837039,0.0001371,53.2165,271.1816,94.7217,265.3931,0.0001325,1.821e-05,0.0,0 STARLINK-4644,1 53719U 22107V   23272.00041776  .00001821  00000-0  13250-3 0  9994,2 53719  53.2165 271.1816 0001371  94.7217 265.3931 15.08837039 59600,6917.889,95.438,540.703,538.806,0.0
53719.0,STARLINK-4644,PAYLOAD,2023-09-29 11:08:17,15.08838762,0.0001592,53.2165,269.1,110.0076,250.1088,0.00038126,5.785e-05,0.0,0 STARLINK-4644,1 53719U 22107V   23272.46409299  .00005785  00000-0  38126-3 0  9994,2 53719  53.2165 269.1000 0001592 110.0076 250.1088 15.08838762 60142,6917.884,95.438,540.851,538.648,0.0
53719.0,STARLINK-4644,PAYLOAD,2023-09-30 03:02:09,15.08845202,0.0001479,53.2157,266.1217,127.7807,232.3319,7.7987e-05,9.54e-06,0.0,0 STARLINK-4644,1 53719U 22107V   23273.12649319  .00000954  00000-0  77987-4 0  9999,2 53719  53.2157 266.1217 0001479 127.7807 232.3319 15.08845202 59774,6917.864,95.437,540.753,538.706,0.0
53719.0,STARLINK-4644,PAYLOAD,2023-09-30 04:37:32,15.08846189,0.0001381,53.216,265.8291,92.962,267.153,0.00015778,2.224e-05,0.0,0 STARLINK-4644,1 53719U 22107V   23273.19273379  .00002224  00000-0  15778-3 0  9996,2 53719  53.2160 265.8291 0001381  92.9620 267.1530 15.08846189 60255,6917.861,95.437,540.682,538.771,0.0
53719.0,STARLINK-4644,PAYLOAD,2023-10-01 02:52:56,15.08841094,0.0001579,53.2157,261.6631,108.02,252.0964,-4.8706e-05,-1.063e-05,0.0,0 STARLINK-4644,1 53719U 22107V   23274.12009649 -.00001063  00000-0 -48706-4 0  9997,2 53719  53.2157 261.6631 0001579 108.0200 252.0964 15.08841094 59921,6917.877,95.437,540.834,538.65,0.0
53719.0,STARLINK-4644,PAYLOAD,2023-10-01 06:03:42,15.08842357,0.0001365,53.2153,261.0715,87.1592,272.9556,2.4887e-05,1.08e-06,0.0,0 STARLINK-4644,1 53719U 22107V   23274.25257723  .00000108  00000-0  24887-4 0  9990,2 53719  53.2153 261.0715 0001365  87.1592 272.9556 15.08842357 60415,6917.873,95.437,540.682,538.794,0.0
53719.0,STARLINK-4644,PAYLOAD,2023-10-02 05:54:29,15.08843433,0.0001439,53.2156,256.6125,95.0587,265.057,0.00011955,1.615e-05,0.0,0 STARLINK-4644,1 53719U 22107V   23275.24617849  .00001615  00000-0  11955-3 0  9994,2 53719  53.2156 256.6125 0001439  95.0587 265.0570 15.08843433 60096,6917.87,95.437,540.73,538.739,0.0
53719.0,STARLINK-4644,PAYLOAD,2023-10-02 15:26:49,15.08829085,0.0001509,53.2155,254.8263,95.8487,264.2678,-3.8819e-05,-9.06e-06,0.0,0 STARLINK-4644,1 53719U 22107V   23275.64362524 -.00000906  00000-0 -38819-4 0  9998,2 53719  53.2155 254.8263 0001509  95.8487 264.2678 15.08829085 60157,6917.914,95.438,540.823,538.735,0.0
53719.0,STARLINK-4644,PAYLOAD,2023-10-03 04:09:53,15.08840966,0.0001309,53.2146,252.4474,93.8837,266.2305,0.00013686,1.891e-05,0.0,0 STARLINK-4644,1 53719U 22107V   23276.17354018  .00001891  00000-0  13686-3 0  9992,2 53719  53.2146 252.4474 0001309  93.8837 266.2305 15.08840966 60239,6917.877,95.437,540.648,538.837,0.0
53719.0,STARLINK-4644,PAYLOAD,2023-10-03 08:56:02,15.08850086,0.0001473,53.2169,251.5559,102.5693,257.5463,0.00027172,4.04e-05,0.0,0 STARLINK-4644,1 53719U 22107V   23276.37225557  .00004040  00000-0  27172-3 0  9993,2 53719  53.2169 251.5559 0001473 102.5693 257.5463 15.08850086 60263,6917.85,95.437,540.734,538.696,0.0
53719.0,STARLINK-4644,PAYLOAD,2023-10-03 15:17:36,15.08837177,0.0001814,53.216,250.3649,88.3342,271.7858,1.8089e-05,0.0,0.0,0 STARLINK-4644,1 53719U 22107V   23276.63722237 -.00000000  00000-0  18089-4 0  9990,2 53719  53.2160 250.3649 0001814  88.3342 271.7858 15.08837177 60309,6917.889,95.438,541.009,538.499,0.0
53719.0,STARLINK-4644,PAYLOAD,2023-10-04 10:22:14,15.0883427,0.000179,53.2157,246.7969,88.5654,271.5543,-5.5135e-06,-3.76e-06,0.0,0 STARLINK-4644,1 53719U 22107V   23277.43210672 -.00000376  00000-0 -55135-5 0  9995,2 53719  53.2157 246.7969 0001790  88.5654 271.5543 15.08834270 60894,6917.898,95.438,541.001,538.525,0.0
53719.0,STARLINK-4644,PAYLOAD,2023-10-04 15:08:23,15.0883323,0.0001598,53.2159,245.905,90.6754,269.4421,-3.1986e-05,-7.97e-06,0.0,0 STARLINK-4644,1 53719U 22107V   23277.63082684 -.00000797  00000-0 -31986-4 0  9991,2 53719  53.2159 245.9050 0001598  90.6754 269.4421 15.08833230 60929,6917.901,95.438,540.872,538.661,0.0
53719.0,STARLINK-4644,PAYLOAD,2023-10-05 02:16:05,15.08837946,9.62e-05,53.2169,243.8246,105.2459,254.8639,0.00011494,1.542e-05,0.0,0 STARLINK-4644,1 53719U 22107V   23278.09450462  .00001542  00000-0  11494-3 0  9993,2 53719  53.2169 243.8246 0000962 105.2459 254.8639 15.08837946 60526,6917.887,95.438,540.417,539.086,0.0
53719.0,STARLINK-4644,PAYLOAD,2023-10-05 07:02:14,15.08855784,0.0001475,53.2161,242.9309,92.7161,267.4,0.00060851,9.414e-05,0.0,0 STARLINK-4644,1 53719U 22107V   23278.29322223  .00009414  00000-0  60851-3 0  9995,2 53719  53.2161 242.9309 0001475  92.7161 267.4000 15.08855784 60553,6917.832,95.437,540.718,538.677,0.0
53719.0,STARLINK-4644,PAYLOAD,2023-10-05 10:13:00,15.08863259,0.0001315,53.2153,242.3362,95.4094,264.7048,0.0010729,0.00016839,0.0,0 STARLINK-4644,1 53719U 22107V   23278.42569976  .00016839  00000-0  10729-2 0  9995,2 53719  53.2153 242.3362 0001315  95.4094 264.7048 15.08863259 61048,6917.809,95.436,540.584,538.765,0.0
53719.0,STARLINK-4644,PAYLOAD,2023-10-05 14:59:10,15.08834987,9.56e-05,53.2152,241.445,104.6971,255.4127,1.1917e-05,-9.8e-07,0.0,0 STARLINK-4644,1 53719U 22107V   23278.62442442 -.00000098  00000-0  11917-4 0  9998,2 53719  53.2152 241.4450 0000956 104.6971 255.4127 15.08834987 60604,6917.896,95.438,540.422,539.099,0.0
53719.0,STARLINK-4644,PAYLOAD,2023-10-06 02:06:52,15.0885129,0.0001084,53.2161,239.3623,100.2475,259.864,0.00065837,0.00010209,0.0,0 STARLINK-4644,1 53719U 22107V   23279.08810266  .00010209  00000-0  65837-3 0  9995,2 53719  53.2161 239.3623 0001084 100.2475 259.8640 15.08851290 60677,6917.846,95.437,540.461,538.961,0.0
53719.0,STARLINK-4644,PAYLOAD,2023-10-06 03:42:15,15.08855351,0.0001517,53.2148,239.0664,86.9356,273.1809,0.0016572,0.00026196,0.0,0 STARLINK-4644,1 53719U 22107V   23279.15434417  .00026196  00000-0  16572-2 0  9996,2 53719  53.2148 239.0664 0001517  86.9356 273.1809 15.08855351 61155,6917.833,95.437,540.748,538.649,0.0
53719.0,STARLINK-4644,PAYLOAD,2023-10-06 14:49:57,15.08851462,0.0001961,53.2149,236.9852,88.1566,271.9651,0.0013857,0.00021841,0.0,0 STARLINK-4644,1 53719U 22107V   23279.61802525  .00021841  00000-0  13857-2 0  9991,2 53719  53.2149 236.9852 0001961  88.1566 271.9651 15.08851462 60756,6917.845,95.437,541.067,538.354,0.0
53719.0,STARLINK-4644,PAYLOAD,2023-10-07 01:57:39,15.08852317,0.0002514,53.2162,234.9001,108.7285,251.3981,0.0014176,0.00022353,0.0,0 STARLINK-4644,1 53719U 22107V   23280.08170586  .00022353  00000-0  14176-2 0  9993,2 53719  53.2162 234.9001 0002514 108.7285 251.3981 15.08852317 60823,6917.843,95.437,541.447,537.969,0.0
53719.0,STARLINK-4644,PAYLOAD,2023-10-07 06:43:48,15.08849024,0.000207,53.2162,234.0079,112.4676,247.6536,0.00080496,0.00012549,0.0,0 STARLINK-4644,1 53719U 22107V   23280.28042364  .00012549  00000-0  80496-3 0  9992,2 53719  53.2162 234.0079 0002070 112.4676 247.6536 15.08849024 60850,6917.853,95.437,541.15,538.286,0.0
